STARLINK-30834          
1 58151U 23166B   26068.68595207  .00020032  00000+0  68654-3 0  9990
2 58151  53.1599 219.7703 0000703 115.4663 244.6410 15.30204498133171
GLOBAL-34               
1 68098U 26043A   26068.47466435  .00014018  00000+0  45822-3 0  9994
2 68098  42.0215  76.7399 0006884 289.2632  70.7460 15.31488019   538
